{
  "links" : {
    "next" : "https://api.nasa.gov/neo/rest/v1/feed?start_date=2004-12-09&end_date=2004-12-09&detailed=true&api_key=t0TVs3DtDT2H8Oy2Zy8m2eVrNsAVKAexjcZXUckd",
    "prev" : "https://api.nasa.gov/neo/rest/v1/feed?start_date=2004-12-07&end_date=2004-12-07&detailed=true&api_key=t0TVs3DtDT2H8Oy2Zy8m2eVrNsAVKAexjcZXUckd",
    "self" : "https://api.nasa.gov/neo/rest/v1/feed?start_date=2004-12-08&end_date=2004-12-08&detailed=true&api_key=t0TVs3DtDT2H8Oy2Zy8m2eVrNsAVKAexjcZXUckd"
  },
  "element_count" : 5,
  "near_earth_objects" : {
    "2004-12-08" : [ {
      "links" : {
        "self" : "https://api.nasa.gov/neo/rest/v1/neo/3257025?api_key=t0TVs3DtDT2H8Oy2Zy8m2eVrNsAVKAexjcZXUckd"
      },
      "neo_reference_id" : "3257025",
      "name" : "(2004 TD18)",
      "nasa_jpl_url" : "http://ssd.jpl.nasa.gov/sbdb.cgi?sstr=3257025",
      "absolute_magnitude_h" : 22.2,
      "estimated_diameter" : {
        "kilometers" : {
          "estimated_diameter_min" : 0.096506147,
          "estimated_diameter_max" : 0.2157943048
        },
        "meters" : {
          "estimated_diameter_min" : 96.5061469579,
          "estimated_diameter_max" : 215.7943048444
        },
        "miles" : {
          "estimated_diameter_min" : 0.059966121,
          "estimated_diameter_max" : 0.134088323
        },
        "feet" : {
          "estimated_diameter_min" : 316.6212271853,
          "estimated_diameter_max" : 707.9865871058
        }
      },
      "is_potentially_hazardous_asteroid" : false,
      "close_approach_data" : [ {
        "close_approach_date" : "2004-12-08",
        "epoch_date_close_approach" : 1102492800000,
        "relative_velocity" : {
          "kilometers_per_second" : "10.1346303062",
          "kilometers_per_hour" : "36484.6691023092",
          "miles_per_hour" : "22670.1545319321"
        },
        "miss_distance" : {
          "astronomical" : "0.1415402671",
          "lunar" : "55.0591659546",
          "kilometers" : "21174124",
          "miles" : "13156991"
        },
        "orbiting_body" : "Earth"
      } ],
      "orbital_data" : {
        "orbit_id" : "15",
        "orbit_determination_date" : "2017-04-06 09:11:59",
        "orbit_uncertainty" : "7",
        "minimum_orbit_intersection" : ".00466655",
        "jupiter_tisserand_invariant" : "3.948",
        "epoch_osculation" : "2458000.5",
        "eccentricity" : ".5456787744336838",
        "semi_major_axis" : "1.746793613220802",
        "inclination" : "3.890286328600358",
        "ascending_node_longitude" : "186.8986221153764",
        "orbital_period" : "843.2586792981155",
        "perihelion_distance" : ".7936054151698886",
        "perihelion_argument" : "291.1743865738678",
        "aphelion_distance" : "2.699981811271716",
        "perihelion_time" : "2457595.077390330360",
        "mean_anomaly" : "173.0810996247953",
        "mean_motion" : ".4269152619924947",
        "equinox" : "J2000"
      }
    }, {
      "links" : {
        "self" : "https://api.nasa.gov/neo/rest/v1/neo/3251512?api_key=t0TVs3DtDT2H8Oy2Zy8m2eVrNsAVKAexjcZXUckd"
      },
      "neo_reference_id" : "3251512",
      "name" : "(2004 RX10)",
      "nasa_jpl_url" : "http://ssd.jpl.nasa.gov/sbdb.cgi?sstr=3251512",
      "absolute_magnitude_h" : 21.3,
      "estimated_diameter" : {
        "kilometers" : {
          "estimated_diameter_min" : 0.1460679643,
          "estimated_diameter_max" : 0.3266178974
        },
        "meters" : {
          "estimated_diameter_min" : 146.0679642714,
          "estimated_diameter_max" : 326.6178974458
        },
        "miles" : {
          "estimated_diameter_min" : 0.090762397,
          "estimated_diameter_max" : 0.2029508896
        },
        "feet" : {
          "estimated_diameter_min" : 479.2256199,
          "estimated_diameter_max" : 1071.581062656
        }
      },
      "is_potentially_hazardous_asteroid" : false,
      "close_approach_data" : [ {
        "close_approach_date" : "2004-12-08",
        "epoch_date_close_approach" : 1102492800000,
        "relative_velocity" : {
          "kilometers_per_second" : "7.322929427",
          "kilometers_per_hour" : "26362.5459373484",
          "miles_per_hour" : "16380.6608353485"
        },
        "miss_distance" : {
          "astronomical" : "0.2917540287",
          "lunar" : "113.4923171997",
          "kilometers" : "43645784",
          "miles" : "27120232"
        },
        "orbiting_body" : "Earth"
      } ],
      "orbital_data" : {
        "orbit_id" : "25",
        "orbit_determination_date" : "2017-04-06 09:12:22",
        "orbit_uncertainty" : "1",
        "minimum_orbit_intersection" : ".0521968",
        "jupiter_tisserand_invariant" : "6.441",
        "epoch_osculation" : "2458000.5",
        "eccentricity" : ".3513356081129143",
        "semi_major_axis" : ".9196267432166406",
        "inclination" : "5.956232771136561",
        "ascending_node_longitude" : "173.680788739367",
        "orbital_period" : "322.118609209975",
        "perihelion_distance" : ".5965291221517233",
        "perihelion_argument" : "334.057094526787",
        "aphelion_distance" : "1.242724364281558",
        "perihelion_time" : "2457900.878023646705",
        "mean_anomaly" : "111.3375957233446",
        "mean_motion" : "1.117600752353093",
        "equinox" : "J2000"
      }
    }, {
      "links" : {
        "self" : "https://api.nasa.gov/neo/rest/v1/neo/3252349?api_key=t0TVs3DtDT2H8Oy2Zy8m2eVrNsAVKAexjcZXUckd"
      },
      "neo_reference_id" : "3252349",
      "name" : "(2004 RZ164)",
      "nasa_jpl_url" : "http://ssd.jpl.nasa.gov/sbdb.cgi?sstr=3252349",
      "absolute_magnitude_h" : 19.0,
      "estimated_diameter" : {
        "kilometers" : {
          "estimated_diameter_min" : 0.4212646106,
          "estimated_diameter_max" : 0.9419763057
        },
        "meters" : {
          "estimated_diameter_min" : 421.2646105562,
          "estimated_diameter_max" : 941.9763057186
        },
        "miles" : {
          "estimated_diameter_min" : 0.2617616123,
          "estimated_diameter_max" : 0.5853167591
        },
        "feet" : {
          "estimated_diameter_min" : 1382.1017848971,
          "estimated_diameter_max" : 3090.4735428537
        }
      },
      "is_potentially_hazardous_asteroid" : true,
      "close_approach_data" : [ {
        "close_approach_date" : "2004-12-08",
        "epoch_date_close_approach" : 1102492800000,
        "relative_velocity" : {
          "kilometers_per_second" : "11.8853610683",
          "kilometers_per_hour" : "42787.2998459869",
          "miles_per_hour" : "26586.3641737467"
        },
        "miss_distance" : {
          "astronomical" : "0.0180123513",
          "lunar" : "7.0068044662",
          "kilometers" : "2694609.25",
          "miles" : "1674352.625"
        },
        "orbiting_body" : "Earth"
      } ],
      "orbital_data" : {
        "orbit_id" : "62",
        "orbit_determination_date" : "2017-04-06 09:12:17",
        "orbit_uncertainty" : "0",
        "minimum_orbit_intersection" : ".0140013",
        "jupiter_tisserand_invariant" : "3.112",
        "epoch_osculation" : "2458000.5",
        "eccentricity" : ".6134106601298899",
        "semi_major_axis" : "2.553441042723828",
        "inclination" : "13.8698320072988",
        "ascending_node_longitude" : "74.93795898279072",
        "orbital_period" : "1490.346249390509",
        "perihelion_distance" : ".9871330871038503",
        "perihelion_argument" : "345.3869725804823",
        "aphelion_distance" : "4.119748998343805",
        "perihelion_time" : "2457816.419040451288",
        "mean_anomaly" : "44.46560352309919",
        "mean_motion" : ".2415546052786225",
        "equinox" : "J2000"
      }
    } ]
  }
}